[{"OBJECT_NAME":"STARLINK-34535","OBJECT_ID":"2025-142C","EPOCH":"2026-03-09T22:20:52.561824","MEAN_MOTION":14.98315048,"ECCENTRICITY":0.00027672,"INCLINATION":70.0028,"RA_OF_ASC_NODE":313.9569,"ARG_OF_PERICENTER":237.0981,"MEAN_ANOMALY":122.9912,"EPHEMERIS_TYPE":0,"CLASSIFICATION_TYPE":"U","NORAD_CAT_ID":64698,"ELEMENT_SET_NO":999,"REV_AT_EPOCH":3950,"BSTAR":0.00014002144,"MEAN_MOTION_DOT":1.578e-5,"MEAN_MOTION_DDOT":0},{"OBJECT_NAME":"COSMOS 2251 DEB","OBJECT_ID":"1993-036NN","EPOCH":"2026-03-09T07:26:11.225760","MEAN_MOTION":14.9633519,"ECCENTRICITY":0.00121484,"INCLINATION":74.0636,"RA_OF_ASC_NODE":162.8967,"ARG_OF_PERICENTER":260.3814,"MEAN_ANOMALY":99.5998,"EPHEMERIS_TYPE":0,"CLASSIFICATION_TYPE":"U","NORAD_CAT_ID":34316,"ELEMENT_SET_NO":999,"REV_AT_EPOCH":90502,"BSTAR":0.0021825431,"MEAN_MOTION_DOT":0.00024784,"MEAN_MOTION_DDOT":0}]
